*******************************************************************************
JPL/HORIZONS                93 Minerva (A867 QA)           2023-Sep-04 11:04:20
Rec #:      93 (+COV) Soln.date: 2023-Aug-25_01:21:09   # obs: 3737 (1870-2023)
 
IAU76/J2000 helio. ecliptic osc. elements (au, days, deg., period=Julian yrs):
 
  EPOCH=  2457434.5 ! 2016-Feb-16.00 (TDB)         Residual RMS= .27443
   EC= .1404859834035447   QR= 2.36848822534129    TP= 2458055.6888793129
   OM= 4.064348559064685   W=  274.6819916927025   IN= 8.561190230813402
   A= 2.755613264714568    MA= 226.1555565427595   ADIST= 3.142738304087847
   PER= 4.57442            N= .21546497            ANGMOM= .028272358
   DAN= 2.6706             DDN= 2.73256            L= 278.798859
   B= -8.5324089           MOID= 1.37181997        TP= 2017-Oct-29.1888793129
 
Asteroid physical parameters (km, seconds, rotational period in hours):
   GM= n.a.                RAD= 77.0775            ROTPER= 5.982
   H= 7.96                 G= .150                 B-V= .685
                           ALBEDO= .056            STYP= C

ASTEROID comments: 
1: soln ref.= JPL#134, OCC=0
2: source=ORB
*******************************************************************************


*******************************************************************************
Ephemeris / API_USER Mon Sep  4 11:04:20 2023 Pasadena, USA      / Horizons
*******************************************************************************
Target body name: 93 Minerva (A867 QA)            {source: JPL#134}
Center body name: Solar System Barycenter (0)     {source: DE441}
Center-site name: BODY CENTER
*******************************************************************************
Start time      : A.D. 2023-Aug-12 00:00:00.0000 TDB
Stop  time      : A.D. 2023-Aug-13 00:00:00.0000 TDB
Step-size       : 2880 minutes
*******************************************************************************
Center geodetic : 0.0, 0.0, 0.0                   {E-lon(deg),Lat(deg),Alt(km)}
Center cylindric: 0.0, 0.0, 0.0                   {E-lon(deg),Dxy(km),Dz(km)}
Center radii    : (undefined)
Small perturbers: Yes                             {source: SB441-N16}
Output units    : KM-S
Calendar mode   : Mixed Julian/Gregorian
Output type     : GEOMETRIC cartesian states
Output format   : 2 (position and velocity)
Reference frame : Ecliptic of J2000.0
*******************************************************************************
Initial IAU76/J2000 heliocentric ecliptic osculating elements (au, days, deg.):
  EPOCH=  2457434.5 ! 2016-Feb-16.00 (TDB)         Residual RMS= .27443        
   EC= .1404859834035447   QR= 2.36848822534129    TP= 2458055.6888793129      
   OM= 4.064348559064685   W=  274.6819916927025   IN= 8.561190230813402       
  Equivalent ICRF heliocentric cartesian coordinates (au, au/d):
   X=-2.138894047038639E+00  Y= 1.830240274446955E+00  Z= 1.169347267741710E+00
  VX=-6.003162704273963E-03 VY=-6.074715953277850E-03 VZ=-3.718171732081569E-03
Asteroid physical parameters (km, seconds, rotational period in hours):        
   GM= n.a.                RAD= 77.0775            ROTPER= 5.982               
   H= 7.96                 G= .150                 B-V= .685                   
                           ALBEDO= .056            STYP= C                     
*******************************************************************************
JDTDB
   X     Y     Z
   VX    VY    VZ
*******************************************************************************
$$SOE
2460168.500000000 = A.D. 2023-Aug-12 00:00:00.0000 TDB 
 X = 3.691924308285697E+08 Y = 2.053126704290213E+08 Z = 2.696739304118314E+07
 VX=-6.339770059075034E+00 VY= 1.602426626042884E+01 VZ= 2.472575085501487E+00
$$EOE
*******************************************************************************
 
TIME

  Barycentric Dynamical Time ("TDB" or T_eph) output was requested. This
continuous coordinate time is equivalent to the relativistic proper time
of a clock at rest in a reference frame co-moving with the solar system
barycenter but outside the system's gravity well. It is the independent
variable in the solar system relativistic equations of motion.

  TDB runs at a uniform rate of one SI second per second and is independent
of irregularities in Earth's rotation.
 
CALENDAR SYSTEM

  Mixed calendar mode was active such that calendar dates after AD 1582-Oct-15
(if any) are in the modern Gregorian system. Dates prior to 1582-Oct-5 (if any)
are in the Julian calendar system, which is automatically extended for dates
prior to its adoption on 45-Jan-1 BC.  The Julian calendar is useful for
matching historical dates. The Gregorian calendar more accurately corresponds
to the Earth's orbital motion and seasons. A "Gregorian-only" calendar mode is
available if such physical events are the primary interest.

REFERENCE FRAME AND COORDINATES

  Ecliptic at the standard reference epoch

    Reference epoch: J2000.0
    X-Y plane: adopted Earth orbital plane at the reference epoch
               Note: IAU76 obliquity of 84381.448 arcseconds wrt ICRF X-Y plane
    X-axis   : ICRF
    Z-axis   : perpendicular to the X-Y plane in the directional (+ or -) sense
               of Earth's north pole at the reference epoch.

  Symbol meaning:

    JDTDB    Julian Day Number, Barycentric Dynamical Time
      X      X-component of position vector (km)
      Y      Y-component of position vector (km)
      Z      Z-component of position vector (km)
      VX     X-component of velocity vector (km/sec)                           
      VY     Y-component of velocity vector (km/sec)                           
      VZ     Z-component of velocity vector (km/sec)                           

ABERRATIONS AND CORRECTIONS

 Geometric state vectors have NO corrections or aberrations applied.

Computations by ...

    Solar System Dynamics Group, Horizons On-Line Ephemeris System
    4800 Oak Grove Drive, Jet Propulsion Laboratory
    Pasadena, CA  91109   USA

    General site: https://ssd.jpl.nasa.gov/
    Mailing list: https://ssd.jpl.nasa.gov/email_list.html
    System news : https://ssd.jpl.nasa.gov/horizons/news.html
    User Guide  : https://ssd.jpl.nasa.gov/horizons/manual.html
    Connect     : browser        https://ssd.jpl.nasa.gov/horizons/app.html#/x
                  API            https://ssd-api.jpl.nasa.gov/doc/horizons.html
                  command-line   telnet ssd.jpl.nasa.gov 6775
                  e-mail/batch   https://ssd.jpl.nasa.gov/ftp/ssd/hrzn_batch.txt
                  scripts        https://ssd.jpl.nasa.gov/ftp/ssd/SCRIPTS
    Author      : Jon.D.Giorgini@jpl.nasa.gov
*******************************************************************************
